1 57371U 23099AV  25355.22577499 -.00002588  00000+0 -17664-3 0  9992
2 57371  43.0024 302.2884 0000652 268.7721  91.3047 15.02530445134462
